[
    {
      "name": "9to9 Salon and Spa",
      "address": "Bandar Bagicha, Nutan Plaza, near Dak Bunglow, Patna, Bihar",
      "pincode": "800001"
    },
    {
      "name": "Naturals Salon and Spa",
      "address": "SP Verma Road, Patna, Bihar",
      "pincode": "800001"
    },
    {
      "name": "STUDIO11 Salon and Spa",
      "address": "2M/57, Ground Floor, Mahatma Gandhi Nagar, Bahadurpur Housing Colony, Kankarbagh, Patna, Bihar",
      "pincode": "800026"
    },
    {
      "name": "The Ladies Looks Salon and Spa",
      "address": "Sri Niwas Path, above PFC, Bandar Bagicha, near Dak Bunglow, Patna, Bihar",
      "pincode": "800001"
    },
    {
      "name": "The Cutting King Unisex Salon & Spa",
      "address": "Frazer Road area, Patna, Bihar",
      "pincode": "800001"
    },
    {
      "name": "A2N Salon & Spa",
      "address": "Pulorvilla Heights, Ramnagri More, Ashiyana Nagar, Patna, Bihar",
      "pincode": "800025"
    },
    {
      "name": "Relax Salon & Spa",
      "address": "Pillar No. 81, Bailey Road, Patna, Bihar",
      "pincode": ""
    },
    {
      "name": "Mahi Spa Centre",
      "address": "Ground Floor, Shymanand Plaza, New Dak Bungalow Road, Exhibition Road, Patna, Bihar",
      "pincode": "800001"
    },
    {
      "name": "The Royal Spa",
      "address": "A-3, 1st Floor, Hari Arcade, Exhibition Road, Patna, Bihar",
      "pincode": "800001"
    },
    {
      "name": "Tattva Spa (Lemon Tree Premier)",
      "address": "Lemon Tree Premier, Plot 876, Brajkishore Path, near Gandhi Maidan Road, South Gandhi Maidan, Patna, Bihar",
      "pincode": "800001"
    },
    {
      "name": "The Golden Oak Spa & Salon",
      "address": "2nd Floor, Hira Panna Arcade, near P&M Mall, Patliputra Colony, Patna, Bihar",
      "pincode": "800010"
    },
    {
      "name": "D'Elixir Unisex Salon & Spa",
      "address": "Loyola High School PNM Mall, The Mall area, Patna, Bihar",
      "pincode": "800010"
    },
    {
      "name": "Sukanya Salon & Spa",
      "address": "Shah Complex, Ground Floor, opposite Hathwa Market, Patna, Bihar",
      "pincode": "800004"
    },
    {
      "name": "Panchtatva Beauty & Spa",
      "address": "House No. 03, Bailey Road, Sheikhpura More, opposite Agrawal Opticals Pillar No. 83, Sheikhpura, Patna, Bihar",
      "pincode": "800014"
    },
    {
      "name": "D2S Unisex Salon and Spa",
      "address": "B140, Housing Colony, south of Panchshiv Mandir, Kankarbagh, Mithapur, Patna, Bihar",
      "pincode": "800020"
    },
    {
      "name": "HPC Spa & Beauty Salon",
      "address": "PC Golambar, Crossing, inside Hotel Patliputra Continental, Patna, Bihar",
      "pincode": "800002"
    },
    {
      "name": "Ocean Salon & Spa",
      "address": "AIIMS Road, Saida Nagar Colony, The Royal Bihar, Patna, Bihar",
      "pincode": "801505"
    },
    {
      "name": "Le Wellness Spa & Salon",
      "address": "1st Floor, Parvati Tower, Phulwari Road, Murlichak, Jagdeo Path, Dhanaut, Patna, Bihar",
      "pincode": "800014"
    },
    {
      "name": "International Spa Salon & Massage Centre",
      "address": "Shashi Complex, Hotel Leelawati, Exhibition Road, Boring Road, Patna, Bihar",
      "pincode": "800001"
    },
    {
      "name": "J Wellness Circle â€“ Taj City Centre Patna",
      "address": "Taj City Centre, Budha Marg, Lodipur, opposite Lodipur Fire Station, Patna, Bihar",
      "pincode": "800001"
    }
  ]
  