[
    {
      "name": "Shivam Construction & Contractors",
      "address": "Road No. 3, Rajendra Nagar, Patna, Bihar",
      "pincode": "800016"
    },
    {
      "name": "Apex Infra Developers",
      "address": "Patliputra Colony, near P&M Mall, Patna, Bihar",
      "pincode": "800013"
    },
    {
      "name": "Urban Buildwell Contractors",
      "address": "Boring Road, Opposite Universal House, Patna, Bihar",
      "pincode": "800001"
    },
    {
      "name": "Skyline Civil Engineers",
      "address": "Kankarbagh Main Road, near Panch Shiv Mandir, Patna, Bihar",
      "pincode": "800020"
    },
    {
      "name": "Prime Infrastructure Works",
      "address": "Exhibition Road, near LIC Building, Patna, Bihar",
      "pincode": "800001"
    },
    {
      "name": "Metro BuildTech Solutions",
      "address": "Bailey Road, RPS More, near Maharana Pratap Roundabout, Patna, Bihar",
      "pincode": "801503"
    },
    {
      "name": "BlueStone Contractors Pvt. Ltd.",
      "address": "Buddha Colony, Opposite A.N. College, Patna, Bihar",
      "pincode": "800001"
    },
    {
      "name": "SolidBase Construction Company",
      "address": "Ashiana-Digha Road, near UBI Bank, Patna, Bihar",
      "pincode": "800025"
    },
    {
      "name": "Heritage Infra Contractors",
      "address": "Fraser Road, near Patna Junction, Patna, Bihar",
      "pincode": "800001"
    },
    {
      "name": "EverGreen Construction & Renovation",
      "address": "Raja Bazar, near IGIMS Road, Patna, Bihar",
      "pincode": "800014"
    },
    {
      "name": "Unity Engineers & Contractors",
      "address": "Kurji More, near Kurji Holy Family Hospital, Patna, Bihar",
      "pincode": "800010"
    },
    {
      "name": "Royal Brick Construction Co.",
      "address": "Phulwari Sharif Main Road, Patna, Bihar",
      "pincode": "801505"
    },
    {
      "name": "Elite Infra Projects",
      "address": "Gola Road, near St. Karen's High School, Patna, Bihar",
      "pincode": "801503"
    },
    {
      "name": "Perfect Home Renovators",
      "address": "Bhikhana Pahari Road, near Bazar Samiti, Patna, Bihar",
      "pincode": "800004"
    },
    {
      "name": "GoldenLine Infrastructure",
      "address": "Patna City Chowk, near Maa Sheetala Mandir, Patna, Bihar",
      "pincode": "800008"
    },
    {
      "name": "TrustBuild Contractors",
      "address": "Agam Kuan Road, near Nalanda Medical College, Patna, Bihar",
      "pincode": "800007"
    },
    {
      "name": "SmartCity Developers & Contractors",
      "address": "Danapur Cantonment Road, near Army School, Patna, Bihar",
      "pincode": "801503"
    },
    {
      "name": "NorthEast Civil Works",
      "address": "S.K. Puri Road, near Children's Park, Boring Road, Patna, Bihar",
      "pincode": "800001"
    },
    {
      "name": "TrueValue Construction Services",
      "address": "Mithapur Bus Stand Road, near DRDA Office, Patna, Bihar",
      "pincode": "800001"
    },
    {
      "name": "Patliputra Construction Services",
      "address": "Khajpura More, Bailey Road, near HP Petrol Pump, Patna, Bihar",
      "pincode": "800014"
    }
  ]
  