[
    {
      "name": "DTDC Courier Service",
      "address": "Fraser Road, near Patna Junction, Patna, Bihar",
      "pincode": "800001"
    },
    {
      "name": "Blue Dart Express",
      "address": "Exhibition Road, Opp. LIC Building, Patna, Bihar",
      "pincode": "800001"
    },
    {
      "name": "Professional Couriers",
      "address": "Boring Canal Road, beside Bharat Petrol Pump, Patna, Bihar",
      "pincode": "800001"
    },
    {
      "name": "First Flight Courier",
      "address": "Kankarbagh Main Road, near Panch Shiv Mandir, Patna, Bihar",
      "pincode": "800020"
    },
    {
      "name": "Trackon Couriers Pvt. Ltd.",
      "address": "Rajendra Nagar Road No. 1, near Sahyog Hospital, Patna, Bihar",
      "pincode": "800016"
    },
    {
      "name": "Delhivery Courier",
      "address": "Bailey Road, RPS More, near UBI Bank, Patna, Bihar",
      "pincode": "801503"
    },
    {
      "name": "Ecom Express Logistics",
      "address": "Sipara Road, near Anisabad Golambar, Patna, Bihar",
      "pincode": "800002"
    },
    {
      "name": "FedEx Courier & Cargo",
      "address": "Dak Bunglow Road, near P&M Mall pickup point, Patna, Bihar",
      "pincode": "800001"
    },
    {
      "name": "Gati Express Cargo",
      "address": "Patliputra Colony, near St. Karenâ€™s School, Patna, Bihar",
      "pincode": "800013"
    },
    {
      "name": "XpressBees Logistics",
      "address": "Phulwari Sharif, AIIMS Road, Patna, Bihar",
      "pincode": "801505"
    },
    {
      "name": "Shadowfax Express",
      "address": "Bahu Bazar Road, near Bazar Samiti, Patna, Bihar",
      "pincode": "800004"
    },
    {
      "name": "Overnite Express Courier",
      "address": "Gandhi Maidan Road, near Kargil Chowk, Patna, Bihar",
      "pincode": "800001"
    },
    {
      "name": "Maruti Air Courier",
      "address": "Patna City Chowk, near Khajekalan Road, Patna, Bihar",
      "pincode": "800008"
    },
    {
      "name": "BlazeFlash Couriers",
      "address": "Ashok Rajpath, near Patna College, Patna, Bihar",
      "pincode": "800004"
    },
    {
      "name": "OnDot Couriers",
      "address": "Kurji More, near Holy Family Hospital, Patna, Bihar",
      "pincode": "800010"
    },
    {
      "name": "SafeXpress Logistics",
      "address": "Bypass Road, near Mahuli Petrol Pump, Patna, Bihar",
      "pincode": "800026"
    },
    {
      "name": "Atlantic Courier Service",
      "address": "Raja Bazar, near IGIMS Gate No. 2, Patna, Bihar",
      "pincode": "800014"
    },
    {
      "name": "SkyNet Worldwide Express",
      "address": "S.K. Puri, Boring Road, near Children's Park, Patna, Bihar",
      "pincode": "800001"
    },
    {
      "name": "Airborne International Courier",
      "address": "Exhibition Road, beside Shashi Complex, Patna, Bihar",
      "pincode": "800001"
    },
    {
      "name": "Metro Courier & Cargo",
      "address": "Mithapur Bus Stand Road, near DRDA Office, Patna, Bihar",
      "pincode": "800001"
    }
  ]
  