[
    {
      "name": "Oro Dental Clinic",
      "address": "Boring Road, Opp. A.N. College, Patna, Bihar",
      "pincode": "800001"
    },
    {
      "name": "Hi-Tech Dental Clinic",
      "address": "Kankarbagh Main Road, near Panch Shiv Mandir, Patna, Bihar",
      "pincode": "800020"
    },
    {
      "name": "Perfect 32 Dental Clinic",
      "address": "Bailey Road, RPS More, opposite Reliance Trends, Patna, Bihar",
      "pincode": "801503"
    },
    {
      "name": "Patna Dental Hospital",
      "address": "Exhibition Road, near LIC Building, Patna, Bihar",
      "pincode": "800001"
    },
    {
      "name": "Smile Care Dental Clinic",
      "address": "Rajendra Nagar Road No. 6, near Sahyog Hospital, Patna, Bihar",
      "pincode": "800016"
    },
    {
      "name": "Cosmodent Dental Care",
      "address": "Patliputra Colony, near ICICI Bank, Patna, Bihar",
      "pincode": "800013"
    },
    {
      "name": "The Dental Hub",
      "address": "Ashiana-Digha Road, near UCO Bank, Patna, Bihar",
      "pincode": "800025"
    },
    {
      "name": "Smile Plus Dental Clinic",
      "address": "Raja Bazar, beside IGIMS Boundary, Patna, Bihar",
      "pincode": "800014"
    },
    {
      "name": "Family Dental Care",
      "address": "Sri Krishna Puri, Boring Canal Road, Patna, Bihar",
      "pincode": "800001"
    },
    {
      "name": "Dento World Clinic",
      "address": "Mithapur Bus Stand Road, near DRDA Office, Patna, Bihar",
      "pincode": "800001"
    },
    {
      "name": "Oral & Maxillofacial Dental Centre",
      "address": "Bhikhana Pahari Road, Bazar Samiti, Patna, Bihar",
      "pincode": "800004"
    },
    {
      "name": "Shivam Dental Care",
      "address": "Kurji More, Near Holy Family Hospital, Patna, Bihar",
      "pincode": "800010"
    },
    {
      "name": "Dental Crown Clinic",
      "address": "Patna City Chowk, Near Marufganj Road, Patna, Bihar",
      "pincode": "800008"
    },
    {
      "name": "Modern Dental Clinic",
      "address": "Phulwari Sharif Main Road, Patna, Bihar",
      "pincode": "801505"
    },
    {
      "name": "Apex Dental Care",
      "address": "Agamkuan Road, Opp. NMCH Gate, Patna, Bihar",
      "pincode": "800007"
    },
    {
      "name": "White Zone Dental Clinic",
      "address": "S.K. Puri, Near Children's Park, Patna, Bihar",
      "pincode": "800001"
    },
    {
      "name": "Healthy Teeth Dental Clinic",
      "address": "Gandhi Maidan Road, Kargil Chowk area, Patna, Bihar",
      "pincode": "800001"
    },
    {
      "name": "Smile Craft Dental Studio",
      "address": "Bhootnath Road, Opp. Canara Bank, Kankarbagh, Patna, Bihar",
      "pincode": "800026"
    },
    {
      "name": "Bright Dental Care",
      "address": "Danapur Cantonment Road, Near Army School, Patna, Bihar",
      "pincode": "801503"
    },
    {
      "name": "Royal Dental Clinic",
      "address": "East Boring Canal Road, Near Dominoâ€™s Pizza, Patna, Bihar",
      "pincode": "800001"
    }
  ]
  