[
    {
      "name": "Resonance Coaching",
      "address": "Boring Road, Near A.N. College, Patna, Bihar",
      "pincode": "800001"
    },
    {
      "name": "Allen Career Institute",
      "address": "Rajendra Nagar Road No. 5, Near Sahyog Hospital, Patna, Bihar",
      "pincode": "800016"
    },
    {
      "name": "FIITJEE Patna",
      "address": "Boring Canal Road, Near Bharat Petrol Pump, Patna, Bihar",
      "pincode": "800001"
    },
    {
      "name": "Aakash Institute",
      "address": "Kankarbagh Main Road, Opp. Bank of Baroda, Patna, Bihar",
      "pincode": "800020"
    },
    {
      "name": "Mentors Eduserv",
      "address": "Bazar Samiti Road, Near Boring Road Crossing, Patna, Bihar",
      "pincode": "800004"
    },
    {
      "name": "Super 30 Institute",
      "address": "Rajendranagar, Near Malahi Pakri Road, Patna, Bihar",
      "pincode": "800016"
    },
    {
      "name": "Vision Classes",
      "address": "Exhibition Road, Near LIC Building, Patna, Bihar",
      "pincode": "800001"
    },
    {
      "name": "Career Point",
      "address": "Patliputra Colony, Near ICICI Bank, Patna, Bihar",
      "pincode": "800013"
    },
    {
      "name": "The Physics Wallah Centre",
      "address": "Bailey Road, RPS More, Near Domino's, Patna, Bihar",
      "pincode": "801503"
    },
    {
      "name": "Unacademy Centre Patna",
      "address": "Frazer Road, Near Dak Bunglow Crossing, Patna, Bihar",
      "pincode": "800001"
    },
    {
      "name": "Narayana IIT Academy",
      "address": "Ashiana-Digha Road, Near UCO Bank, Patna, Bihar",
      "pincode": "800025"
    },
    {
      "name": "Career Launcher",
      "address": "Boring Canal Road, Near Woodland Hospital, Patna, Bihar",
      "pincode": "800001"
    },
    {
      "name": "English Spoken Hub",
      "address": "Patna City Chowk, Near Mahavir Mandir Lane, Patna, Bihar",
      "pincode": "800008"
    },
    {
      "name": "Krishna Study Centre",
      "address": "Danapur Cantonment Road, Near Army School, Patna, Bihar",
      "pincode": "801503"
    },
    {
      "name": "RK Singh Coaching Institute",
      "address": "Agamkuan Road, Opp. NMCH Gate, Patna, Bihar",
      "pincode": "800007"
    },
    {
      "name": "Paramount Coaching Centre",
      "address": "Gandhi Maidan Road, Near Kargil Chowk, Patna, Bihar",
      "pincode": "800001"
    },
    {
      "name": "Lalit Narayan Coaching Classes",
      "address": "Gola Road, Opp. St. Karenâ€™s School, Patna, Bihar",
      "pincode": "801503"
    },
    {
      "name": "Achievers IAS Academy",
      "address": "S.K. Puri Road, Near Children's Park, Boring Road, Patna, Bihar",
      "pincode": "800001"
    },
    {
      "name": "Drishti IAS Coaching",
      "address": "Bhootnath Road, Opp. Canara Bank, Kankarbagh, Patna, Bihar",
      "pincode": "800026"
    },
    {
      "name": "Ignite Academy",
      "address": "Sipara Road, Near Anisabad Golambar, Patna, Bihar",
      "pincode": "800002"
    }
  ]
  