[
    {
      "name": "Elite Events Patna",
      "address": "Boring Road, Near A.N. College, Patna, Bihar",
      "pincode": "800001"
    },
    {
      "name": "ShadiWale Events",
      "address": "Kankarbagh Main Road, Near Panch Shiv Mandir, Patna, Bihar",
      "pincode": "800020"
    },
    {
      "name": "Royal Event Planners",
      "address": "Exhibition Road, Near LIC Building, Patna, Bihar",
      "pincode": "800001"
    },
    {
      "name": "Dream Makers Event Company",
      "address": "Rajendra Nagar Road No. 5, Near Sahyog Hospital, Patna, Bihar",
      "pincode": "800016"
    },
    {
      "name": "Apex Weddings & Events",
      "address": "Bailey Road, RPS More, Near Domino’s Pizza, Patna, Bihar",
      "pincode": "801503"
    },
    {
      "name": "Celebrations Event Management",
      "address": "Patliputra Colony, Near ICICI Bank, Patna, Bihar",
      "pincode": "800013"
    },
    {
      "name": "Galaxy Event Organisers",
      "address": "Ashiana-Digha Road, Near UCO Bank, Patna, Bihar",
      "pincode": "800025"
    },
    {
      "name": "Vivah Events & Entertainment",
      "address": "Raja Bazar, Near IGIMS Gate No. 2, Patna, Bihar",
      "pincode": "800014"
    },
    {
      "name": "Star Event Planners",
      "address": "Phulwari Sharif Main Road, Patna, Bihar",
      "pincode": "801505"
    },
    {
      "name": "Cityline Events",
      "address": "S.K. Puri, Near Children's Park, Boring Road, Patna, Bihar",
      "pincode": "800001"
    },
    {
      "name": "DreamDay Event Management",
      "address": "Bhootnath Road, Opp. Canara Bank, Kankarbagh, Patna, Bihar",
      "pincode": "800026"
    },
    {
      "name": "Golden Moments Events",
      "address": "Gola Road, Near St. Karen’s School, Patna, Bihar",
      "pincode": "801503"
    },
    {
      "name": "Sunrise Event House",
      "address": "Kurji More, Near Holy Family Hospital, Patna, Bihar",
      "pincode": "800010"
    },
    {
      "name": "Bright Events Patna",
      "address": "Bhikhana Pahari Road, Near Bazar Samiti, Patna, Bihar",
      "pincode": "800004"
    },
    {
      "name": "Happy Moments Event Company",
      "address": "Gandhi Maidan Road, Near Kargil Chowk, Patna, Bihar",
      "pincode": "800001"
    },
    {
      "name": "Perfect Event Organisers",
      "address": "Danapur Cantonment Road, Near Army School, Patna, Bihar",
      "pincode": "801503"
    },
    {
      "name": "Creative Weddings & Events",
      "address": "Agamkuan Road, Opp. NMCH Gate, Patna, Bihar",
      "pincode": "800007"
    },
    {
      "name": "Royal Touch Events",
      "address": "Patna City Chowk, Near Bari Path Road, Patna, Bihar",
      "pincode": "800008"
    },
    {
      "name": "Metro Events Patna",
      "address": "Mithapur Bus Stand Road, Opp. DRDA Office, Patna, Bihar",
      "pincode": "800001"
    },
    {
      "name": "Grand Fiesta Events",
      "address": "Sipara Road, Near Anisabad Golambar, Patna, Bihar",
      "pincode": "800002"
    }
  ]
  