[
    {
      "name": "Home Centre Patna",
      "address": "P&M Mall, Patliputra Kurji Road, Patna, Bihar",
      "pincode": "800013"
    },
    {
      "name": "Urban Ladder Decor Studio",
      "address": "Boring Road, Near A.N. College, Patna, Bihar",
      "pincode": "800001"
    },
    {
      "name": "Royal Furniture & Home Decor",
      "address": "Kankarbagh Main Road, Near Panch Shiv Mandir, Patna, Bihar",
      "pincode": "800020"
    },
    {
      "name": "The Home Style Store",
      "address": "Exhibition Road, Near LIC Building, Patna, Bihar",
      "pincode": "800001"
    },
    {
      "name": "Elegant Interiors Patna",
      "address": "Rajendra Nagar Road No. 6, Near Sahyog Hospital, Patna, Bihar",
      "pincode": "800016"
    },
    {
      "name": "Woodland Furniture & Decor",
      "address": "Ashiana-Digha Road, Near UCO Bank, Patna, Bihar",
      "pincode": "800025"
    },
    {
      "name": "Furniture World Patna",
      "address": "Raja Bazar, Near IGIMS Gate No. 2, Patna, Bihar",
      "pincode": "800014"
    },
    {
      "name": "Deco Homes Interior Studio",
      "address": "Bailey Road, RPS More, Opp. Reliance Trends, Patna, Bihar",
      "pincode": "801503"
    },
    {
      "name": "Creative Home Decor",
      "address": "Patna City Chowk, Near Marufganj Market, Patna, Bihar",
      "pincode": "800008"
    },
    {
      "name": "Dream Homes Decor Studio",
      "address": "Patliputra Colony, Near ICICI Bank, Patna, Bihar",
      "pincode": "800013"
    },
    {
      "name": "Modern Home Gallery",
      "address": "Bhootnath Road, Opp. Canara Bank, Kankarbagh, Patna, Bihar",
      "pincode": "800026"
    },
    {
      "name": "City Furniture & Decor",
      "address": "S.K. Puri Road, Near Children's Park, Boring Road, Patna, Bihar",
      "pincode": "800001"
    },
    {
      "name": "Perfect Home Interiors",
      "address": "Kurji More, Near Holy Family Hospital, Patna, Bihar",
      "pincode": "800010"
    },
    {
      "name": "Metro Home Furnishings",
      "address": "Mithapur Bus Stand Road, Opp. DRDA Office, Patna, Bihar",
      "pincode": "800001"
    },
    {
      "name": "Sunrise Furniture & Decor",
      "address": "Bhikhana Pahari Road, Near Bazar Samiti, Patna, Bihar",
      "pincode": "800004"
    },
    {
      "name": "Cozy Living Home Store",
      "address": "Danapur Cantonment Road, Near Army School, Patna, Bihar",
      "pincode": "801503"
    },
    {
      "name": "Elite Interior Designers",
      "address": "Agamkuan Road, Opp. NMCH Gate, Patna, Bihar",
      "pincode": "800007"
    },
    {
      "name": "Royal Decor Gallery",
      "address": "Gandhi Maidan Road, Near Kargil Chowk, Patna, Bihar",
      "pincode": "800001"
    },
    {
      "name": "Patna Home Furnishings",
      "address": "Gola Road, Opp. St. Karenâ€™s High School, Patna, Bihar",
      "pincode": "801503"
    },
    {
      "name": "Classic Furniture & Decor House",
      "address": "Sipara Road, Near Anisabad Golambar, Patna, Bihar",
      "pincode": "800002"
    }
  ]
  