[
    {
      "name": "AIIMS Patna",
      "address": "Phulwari Sharif, Patna, Bihar",
      "pincode": "801507"
    },
    {
      "name": "IGIMS Hospital",
      "address": "Sheikhpura, Bailey Road, Patna, Bihar",
      "pincode": "800014"
    },
    {
      "name": "Paras HMRI Hospital",
      "address": "Bailey Road, Raja Bazar, Patna, Bihar",
      "pincode": "800014"
    },
    {
      "name": "Ruban Memorial Hospital",
      "address": "Patliputra Colony, Near P&M Mall, Patna, Bihar",
      "pincode": "800013"
    },
    {
      "name": "Ford Hospital & Research Centre",
      "address": "New Bypass Road, Khemnichak, Patna, Bihar",
      "pincode": "800027"
    },
    {
      "name": "Sahyog Hospital",
      "address": "Rajendra Nagar Road No. 4, Patna, Bihar",
      "pincode": "800016"
    },
    {
      "name": "LifeCare Hospital",
      "address": "Kankarbagh Main Road, Near Panch Shiv Mandir, Patna, Bihar",
      "pincode": "800020"
    },
    {
      "name": "Nalanda Medical College & Hospital (NMCH)",
      "address": "Agamkuan Road, Patna, Bihar",
      "pincode": "800007"
    },
    {
      "name": "Mahavir Cancer Sansthan",
      "address": "Kankarbagh East, Patna, Bihar",
      "pincode": "800026"
    },
    {
      "name": "Patna Medical College & Hospital (PMCH)",
      "address": "Ashok Rajpath, Near Gandhi Maidan, Patna, Bihar",
      "pincode": "800004"
    },
    {
      "name": "Shri Sai Hospital",
      "address": "Patna City, Near Chowk Shikarpur, Patna, Bihar",
      "pincode": "800008"
    },
    {
      "name": "Maa Tara Hospital",
      "address": "Raja Bazar, Near IGIMS, Patna, Bihar",
      "pincode": "800014"
    },
    {
      "name": "Mithila Hospital",
      "address": "Exhibition Road, Near LIC Building, Patna, Bihar",
      "pincode": "800001"
    },
    {
      "name": "Metro Hospital",
      "address": "Ashiana-Digha Road, Near UCO Bank, Patna, Bihar",
      "pincode": "800025"
    },
    {
      "name": "Cure & Care Hospital",
      "address": "Bhootnath Road, Opp. Canara Bank, Kankarbagh, Patna, Bihar",
      "pincode": "800026"
    },
    {
      "name": "Mediversal Hospital",
      "address": "Kankarbagh, Near Rajendra Nagar Overbridge, Patna, Bihar",
      "pincode": "800020"
    },
    {
      "name": "Navjeevan Hospital",
      "address": "Gola Road, Near St. Karenâ€™s School, Patna, Bihar",
      "pincode": "801503"
    },
    {
      "name": "Sanjeevani Hospital",
      "address": "Bhikhana Pahari Road, Bazar Samiti, Patna, Bihar",
      "pincode": "800004"
    },
    {
      "name": "Holy Family Hospital",
      "address": "Kurji More, Patna, Bihar",
      "pincode": "800010"
  