[
    {
      "name": "Hotel Maurya Patna",
      "address": "South Gandhi Maidan, Patna, Bihar",
      "pincode": "800001"
    },
    {
      "name": "Lemon Tree Premier",
      "address": "Braj Kishore Path, Near Gandhi Maidan, Patna, Bihar",
      "pincode": "800001"
    },
    {
      "name": "Hotel Chanakya",
      "address": "Beer Chand Patel Path, Near R Block, Patna, Bihar",
      "pincode": "800001"
    },
    {
      "name": "Hotel Patliputra Continental",
      "address": "PC Golambar, Patna Airport Road, Patna, Bihar",
      "pincode": "800014"
    },
    {
      "name": "Hotel Amalfi Grand",
      "address": "R Block, Bailey Road, Near IGIMS, Patna, Bihar",
      "pincode": "800014"
    },
    {
      "name": "Hotel Gargee Grand",
      "address": "Exhibition Road, Opp. Big Bazaar, Patna, Bihar",
      "pincode": "800001"
    },
    {
      "name": "FabHotel Palash",
      "address": "Kankarbagh Main Road, Near Bhootnath, Patna, Bihar",
      "pincode": "800020"
    },
    {
      "name": "Hotel Panache",
      "address": "Dak Bunglow Crossing, Fraser Road Area, Patna, Bihar",
      "pincode": "800001"
    },
    {
      "name": "Marasa Sarovar Premiere",
      "address": "Jalan Road, Near Gandhi Maidan, Patna, Bihar",
      "pincode": "800001"
    },
    {
      "name": "Hotel Windsor Patna",
      "address": "Frazer Road, Near Patna Junction, Patna, Bihar",
      "pincode": "800001"
    },
    {
      "name": "Hotel Grand Celebration",
      "address": "Bailey Road, RPS More, Patna, Bihar",
      "pincode": "801503"
    },
    {
      "name": "Hotel The Golden Sunrise",
      "address": "Ashiana-Digha Road, Near UCO Bank, Patna, Bihar",
      "pincode": "800025"
    },
    {
      "name": "Hotel Relax Inn",
      "address": "Raja Bazar, Near IGIMS, Patna, Bihar",
      "pincode": "800014"
    },
    {
      "name": "Hotel Samrat International",
      "address": "Patna Junction Road, Near Railway Station, Patna, Bihar",
      "pincode": "800001"
    },
    {
      "name": "Hotel President",
      "address": "Buddha Marg, Near Patna Junction, Lodipur, Patna, Bihar",
      "pincode": "800001"
    },
    {
      "name": "Hotel Patliputra Nirvana",
      "address": "D.B. Gupta Palace, Fraser Road, Patna, Bihar",
      "pincode": "800001"
    },
    {
      "name": "Hotel Republic",
      "address": "Exhibition Road, Near LIC Building, Patna, Bihar",
      "pincode": "800001"
    },
    {
      "name": "Hotel Maple Inn",
      "address": "Bhootnath Road, Opp. Canara Bank, Kankarbagh, Patna, Bihar",
      "pincode": "800026"
    },
    {
      "name": "Hotel City Centre",
      "address": "Bank Road, Opp. Vishal Mega Mart, Patna, Bihar",
      "pincode": "800001"
    },
    {
      "name": "Hotel Royal Residency",
      "address": "Sipara Road, Near Anisabad Golambar, Patna, Bihar",
      "pincode": "800002"
    }
  ]
  