[
    {
      "name": "HDFC Bank Loan Center",
      "address": "Frazer Road, Near Dak Bungalow Crossing, Patna, Bihar",
      "pincode": "800001"
    },
    {
      "name": "ICICI Bank Loan Assistance",
      "address": "Boring Road, Opp. A.N. College, Patna, Bihar",
      "pincode": "800001"
    },
    {
      "name": "State Bank of India (SBI) Loan Point",
      "address": "Kankarbagh Main Road, Near Bhootnath, Patna, Bihar",
      "pincode": "800020"
    },
    {
      "name": "Axis Bank Loan Centre",
      "address": "Exhibition Road, Opp. LIC Building, Patna, Bihar",
      "pincode": "800001"
    },
    {
      "name": "Kotak Mahindra Bank Loans",
      "address": "Bailey Road, RPS More, Opp. Reliance Trends, Patna, Bihar",
      "pincode": "801503"
    },
    {
      "name": "Bajaj Finserv Loan Office",
      "address": "Patliputra Colony, Near P&M Mall, Patna, Bihar",
      "pincode": "800013"
    },
    {
      "name": "Tata Capital Loan Services",
      "address": "Rajendra Nagar Road No. 6, Patna, Bihar",
      "pincode": "800016"
    },
    {
      "name": "Muthoot Finance Loan Center",
      "address": "Ashok Rajpath, Near PMCH, Patna, Bihar",
      "pincode": "800004"
    },
    {
      "name": "Manappuram Finance",
      "address": "Raja Bazar, Near IGIMS, Patna, Bihar",
      "pincode": "800014"
    },
    {
      "name": "Shriram City Finance",
      "address": "S.K. Puri Road, Near Children’s Park, Boring Road, Patna, Bihar",
      "pincode": "800001"
    },
    {
      "name": "HDB Financial Services",
      "address": "Bhikhana Pahari Road, Near Bazar Samiti, Patna, Bihar",
      "pincode": "800004"
    },
    {
      "name": "IDFC First Bank Loan Desk",
      "address": "Gandhi Maidan Road, Near Kargil Chowk, Patna, Bihar",
      "pincode": "800001"
    },
    {
      "name": "Piramal Finance Loans",
      "address": "Mithapur Bus Stand Road, Opp. DRDA Office, Patna, Bihar",
      "pincode": "800001"
    },
    {
      "name": "LoanTap Services",
      "address": "Gola Road, Near St. Karen’s School, Patna, Bihar",
      "pincode": "801503"
    },
    {
      "name": "Fullerton India",
      "address": "Kurji More, Near Holy Family Hospital, Patna, Bihar",
      "pincode": "800010"
    },
    {
      "name": "Indiabulls Consumer Finance",
      "address": "Ashiana-Digha Road, Near UCO Bank, Patna, Bihar",
      "pincode": "800025"
    },
    {
      "name": "Capital First Loan Center",
      "address": "Bhootnath Road, Opp. Canara Bank, Kankarbagh, Patna, Bihar",
      "pincode": "800026"
    },
    {
      "name": "Ujjivan Small Finance Bank",
      "address": "Agamkuan Road, Opp. NMCH Gate, Patna, Bihar",
      "pincode": "800007"
    },
    {
      "name": "Bandhan Bank Loan Branch",
      "address": "Patna City Chowk, Near Bari Path, Patna, Bihar",
      "pincode": "800008"
    },
    {
      "name": "Mahindra Finance",
      "address": "Sipara Road, Near Anisabad Golambar, Patna, Bihar",
      "pincode": "800002"
    }
  ]
  