[
    {
      "name": "Patna Pet House",
      "address": "Boring Road, Near A.N. College, Patna, Bihar",
      "pincode": "800001"
    },
    {
      "name": "Pet World Patna",
      "address": "Kankarbagh Main Road, Near Panch Shiv Mandir, Patna, Bihar",
      "pincode": "800020"
    },
    {
      "name": "Happy Pets Store",
      "address": "Rajendra Nagar Road No. 1, Near Sahyog Hospital, Patna, Bihar",
      "pincode": "800016"
    },
    {
      "name": "Pet Care Center",
      "address": "Exhibition Road, Near LIC Building, Patna, Bihar",
      "pincode": "800001"
    },
    {
      "name": "DogSpot Pet Shop",
      "address": "Bailey Road, RPS More, Near Reliance Trends, Patna, Bihar",
      "pincode": "801503"
    },
    {
      "name": "Pet Planet",
      "address": "Patliputra Colony, Near ICICI Bank, Patna, Bihar",
      "pincode": "800013"
    },
    {
      "name": "Royal Pet Store",
      "address": "Raja Bazar, Near IGIMS Gate No. 2, Patna, Bihar",
      "pincode": "800014"
    },
    {
      "name": "The Pet Corner",
      "address": "Ashiana-Digha Road, Near UCO Bank, Patna, Bihar",
      "pincode": "800025"
    },
    {
      "name": "Paws & Claws Pet Shop",
      "address": "Phulwari Sharif Main Road, Patna, Bihar",
      "pincode": "801505"
    },
    {
      "name": "Happy Tails Pet Store",
      "address": "S.K. Puri Road, Near Children's Park, Boring Road, Patna, Bihar",
      "pincode": "800001"
    },
    {
      "name": "Pets & More Store",
      "address": "Bhootnath Road, Opp. Canara Bank, Kankarbagh, Patna, Bihar",
      "pincode": "800026"
    },
    {
      "name": "Animal Care Pet Shop",
      "address": "Patna City Chowk, Near Marufganj Market, Patna, Bihar",
      "pincode": "800008"
    },
    {
      "name": "Blue Pet Hub",
      "address": "Gandhi Maidan Road, Near Kargil Chowk, Patna, Bihar",
      "pincode": "800001"
    },
    {
      "name": "The Dog House Patna",
      "address": "Mithapur Bus Stand Road, Opp. DRDA Office, Patna, Bihar",
      "pincode": "800001"
    },
    {
      "name": "Pet Palace",
      "address": "Agamkuan Road, Opp. NMCH Gate, Patna, Bihar",
      "pincode": "800007"
    },
    {
      "name": "Smart Pet Store",
      "address": "Kurji More, Near Holy Family Hospital, Patna, Bihar",
      "pincode": "800010"
    },
    {
      "name": "City Pet Shop",
      "address": "Gola Road, Opp. St. Karen’s High School, Patna, Bihar",
      "pincode": "801503"
    },
    {
      "name": "Perfect Pet Store",
      "address": "Bhikhana Pahari Road, Near Bazar Samiti, Patna, Bihar",
      "pincode": "800004"
    },
    {
      "name": "Royal Paws Pet Store",
      "address": "Sipara Road, Near Anisabad Golambar, Patna, Bihar",
      "pincode": "800002"
    },
    {
      "name": "Furry Friends Pet Shop",
      "address": "East Boring Canal Road, Near Domino’s Pizza, Patna, Bihar",
      "pincode": "800001"
    }
  ]
  