[
    {
      "name": "Shivam Boys Hostel",
      "address": "Kankarbagh Main Road, Near Panch Shiv Mandir, Patna, Bihar",
      "pincode": "800020"
    },
    {
      "name": "Apex Girls Hostel",
      "address": "Boring Road, Near A.N. College, Patna, Bihar",
      "pincode": "800001"
    },
    {
      "name": "Patliputra Boys PG",
      "address": "Patliputra Colony, Near ICICI Bank, Patna, Bihar",
      "pincode": "800013"
    },
    {
      "name": "Sunrise Girls Hostel",
      "address": "Raja Bazar, Near IGIMS, Patna, Bihar",
      "pincode": "800014"
    },
    {
      "name": "Metro Boys Hostel",
      "address": "Bailey Road, RPS More, Near Reliance Trends, Patna, Bihar",
      "pincode": "801503"
    },
    {
      "name": "Royal Girls PG",
      "address": "Ashiana-Digha Road, Near UCO Bank, Patna, Bihar",
      "pincode": "800025"
    },
    {
      "name": "Gandhi Nagar Boys Hostel",
      "address": "Rajendra Nagar Road No. 6, Near Sahyog Hospital, Patna, Bihar",
      "pincode": "800016"
    },
    {
      "name": "Elite Girls Hostel",
      "address": "East Boring Canal Road, Near Domino’s Pizza, Patna, Bihar",
      "pincode": "800001"
    },
    {
      "name": "Perfect Boys PG",
      "address": "Bhootnath Road, Opp. Canara Bank, Kankarbagh, Patna, Bihar",
      "pincode": "800026"
    },
    {
      "name": "SafeStay Girls Hostel",
      "address": "Patna City Chowk, Near Marufganj Market, Patna, Bihar",
      "pincode": "800008"
    },
    {
      "name": "Student Corner Boys Hostel",
      "address": "Agamkuan Road, Opp. NMCH Gate, Patna, Bihar",
      "pincode": "800007"
    },
    {
      "name": "City Girls PG",
      "address": "S.K. Puri Road, Near Children’s Park, Boring Road, Patna, Bihar",
      "pincode": "800001"
    },
    {
      "name": "Prime Boys Hostel",
      "address": "Danapur Cantonment Road, Near Army School, Patna, Bihar",
      "pincode": "801503"
    },
    {
      "name": "Bright Girls Hostel",
      "address": "Bhikhana Pahari Road, Near Bazar Samiti, Patna, Bihar",
      "pincode": "800004"
    },
    {
      "name": "Metro Girls Hostel",
      "address": "Mithapur Bus Stand Road, Opp. DRDA Office, Patna, Bihar",
      "pincode": "800001"
    },
    {
      "name": "Comfort Boys PG",
      "address": "Gola Road, Opp. St. Karen’s High School, Patna, Bihar",
      "pincode": "801503"
    },
    {
      "name": "CozyNest Girls Hostel",
      "address": "Kurji More, Near Holy Family Hospital, Patna, Bihar",
      "pincode": "800010"
    },
    {
      "name": "GoodLife Boys Hostel",
      "address": "Phulwari Sharif Main Road, Patna, Bihar",
      "pincode": "801505"
    },
    {
      "name": "CampusStay Girls Hostel",
      "address": "Gandhi Maidan Road, Near Kargil Chowk, Patna, Bihar",
      "pincode": "800001"
    },
    {
      "name": "Patna Elite Boys Hostel",
      "address": "Sipara Road, Near Anisabad Golambar, Patna, Bihar",
      "pincode": "800002"
    }
  ]
  