[
    {
      "name": "Pind Balluchi",
      "address": "Frazer Road, Near Dak Bungalow Crossing, Patna, Bihar",
      "pincode": "800001"
    },
    {
      "name": "Biryani Mahal",
      "address": "Boring Road, Near A.N. College, Patna, Bihar",
      "pincode": "800001"
    },
    {
      "name": "Barbeque Nation",
      "address": "P&M Mall, Patliputra Kurji Road, Patna, Bihar",
      "pincode": "800013"
    },
    {
      "name": "Mumbai Chowpatty",
      "address": "Kankarbagh Main Road, Near Panch Shiv Mandir, Patna, Bihar",
      "pincode": "800020"
    },
    {
      "name": "Basant Vihar",
      "address": "Buddha Colony, Near A.N. College, Patna, Bihar",
      "pincode": "800001"
    },
    {
      "name": "Yo! China",
      "address": "Exhibition Road, Opp. Big Bazaar, Patna, Bihar",
      "pincode": "800001"
    },
    {
      "name": "Mainland China",
      "address": "Patliputra Colony, Near ICICI Bank, Patna, Bihar",
      "pincode": "800013"
    },
    {
      "name": "Kabab Factory",
      "address": "Bailey Road, RPS More, Near Domino’s, Patna, Bihar",
      "pincode": "801503"
    },
    {
      "name": "Takshila Restaurant",
      "address": "Hotel Chanakya, Beer Chand Patel Path, Patna, Bihar",
      "pincode": "800001"
    },
    {
      "name": "17 Degrees Restaurant",
      "address": "P&M Mall, 5th Floor, Patna, Bihar",
      "pincode": "800013"
    },
    {
      "name": "Ankur Restaurant",
      "address": "Ashok Rajpath, Near PMCH, Patna, Bihar",
      "pincode": "800004"
    },
    {
      "name": "The Yellow Chilli",
      "address": "Boring Canal Road, Near Axis Bank, Patna, Bihar",
      "pincode": "800001"
    },
    {
      "name": "Barbecue Express",
      "address": "Kankarbagh, Near Rajendra Nagar Overbridge, Patna, Bihar",
      "pincode": "800020"
    },
    {
      "name": "BrewTown Café & Restaurant",
      "address": "Bhootnath Road, Opp. Canara Bank, Patna, Bihar",
      "pincode": "800026"
    },
    {
      "name": "Bollywood Treats",
      "address": "Gandhi Maidan Road, Near Kargil Chowk, Patna, Bihar",
      "pincode": "800001"
    },
    {
      "name": "Chowdhury's Dhaba",
      "address": "Kurji More, Near Holy Family Hospital, Patna, Bihar",
      "pincode": "800010"
    },
    {
      "name": "Royal Darbar Restaurant",
      "address": "Patna City Chowk, Near Marufganj Market, Patna, Bihar",
      "pincode": "800008"
    },
    {
      "name": "Grand Eatery Restaurant",
      "address": "Mithapur Bus Stand Road, Near DRDA Office, Patna, Bihar",
      "pincode": "800001"
    },
    {
      "name": "The Urban Tadka",
      "address": "Gola Road, Opp. St. Karen’s High School, Patna, Bihar",
      "pincode": "801503"
    },
    {
      "name": "Zaika-e-Patna",
      "address": "Sipara Road, Near Anisabad Golambar, Patna, Bihar",
      "pincode": "800002"
    }
  ]
  